{
    "links": {
        "self": "http://www.neowsapp.com/rest/v1/neo/3789627?api_key=iIulBulltgU6a56xZRHN4H3l9WmuAYTsLGpBGhQ2"
    },
    "id": "3789627",
    "neo_reference_id": "3789627",
    "name": "(2017 WQ13)",
    "designation": "2017 WQ13",
    "nasa_jpl_url": "http://ssd.jpl.nasa.gov/sbdb.cgi?sstr=3789627",
    "absolute_magnitude_h": 26.2,
    "estimated_diameter": {
        "kilometers": {
            "estimated_diameter_min": 0.0152951935,
            "estimated_diameter_max": 0.0342010925
        },
        "meters": {
            "estimated_diameter_min": 15.2951935344,
            "estimated_diameter_max": 34.201092472
        },
        "miles": {
            "estimated_diameter_min": 0.0095039897,
            "estimated_diameter_max": 0.021251567
        },
        "feet": {
            "estimated_diameter_min": 50.1810827555,
            "estimated_diameter_max": 112.2083122258
        }
    },
    "is_potentially_hazardous_asteroid": false,
    "close_approach_data": [
        {
            "close_approach_date": "2017-11-26",
            "close_approach_date_full": "2017-Nov-26 08:41",
            "epoch_date_close_approach": 1511685660000,
            "relative_velocity": {
                "kilometers_per_second": "9.5083675806",
                "kilometers_per_hour": "34230.1232900847",
                "miles_per_hour": "21269.2674409973"
            },
            "miss_distance": {
                "astronomical": "0.0325482127",
                "lunar": "12.6612547403",
                "kilometers": "4869143.292226949",
                "miles": "3025545.3453879362"
            },
            "orbiting_body": "Earth"
        }
    ],
    "orbital_data": {
        "orbit_id": "3",
        "orbit_determination_date": "2017-11-28 06:49:06",
        "first_observation_date": "2017-11-20",
        "last_observation_date": "2017-11-27",
        "data_arc_in_days": 7,
        "observations_used": 66,
        "orbit_uncertainty": "7",
        "minimum_orbit_intersection": ".0324936",
        "jupiter_tisserand_invariant": "4.100",
        "epoch_osculation": "2459000.5",
        "eccentricity": ".3994988678418732",
        "semi_major_axis": "1.684477666440833",
        "inclination": "14.33209575399011",
        "ascending_node_longitude": "62.91451851620027",
        "orbital_period": "798.5393331962132",
        "perihelion_distance": "1.0115307457928",
        "perihelion_argument": "13.81348849725416",
        "aphelion_distance": "2.357424587088866",
        "perihelion_time": "2458893.730658932255",
        "mean_anomaly": "48.13408831164438",
        "mean_motion": ".4508231279717596",
        "equinox": "J2000",
        "orbit_class": {
            "orbit_class_type": "APO",
            "orbit_class_description": "Near-Earth asteroid orbits which cross the Earth’s orbit similar to that of 1862 Apollo",
            "orbit_class_range": "a (semi-major axis) > 1.0 AU; q (perihelion) < 1.017 AU"
        }
    },
    "is_sentry_object": false
}